FLOCK 4G-24             
1 62637U 25009AE  26068.72509072  .00010513  00000+0  38996-3 0  9991
2 62637  97.4061 151.5140 0001802 280.2808  79.8228 15.27784978 63732
STARLINK-34211          
1 64255U 25119Y   26067.70083986  .00036251  00000+0  13205-2 0  9991
2 64255  42.9990 313.0169 0000806 273.6098  86.4661 15.27578031 44018
